[{"OBJECT_NAME":"STARLINK-6262","OBJECT_ID":"2023-088AV","EPOCH":"2026-03-09T22:00:01.999584","MEAN_MOTION":15.08522241,"ECCENTRICITY":0.00013561,"INCLINATION":43.0008,"RA_OF_ASC_NODE":92.9596,"ARG_OF_PERICENTER":291.1989,"MEAN_ANOMALY":189.7369,"EPHEMERIS_TYPE":0,"CLASSIFICATION_TYPE":"U","NORAD_CAT_ID":57091,"ELEMENT_SET_NO":999,"REV_AT_EPOCH":578,"BSTAR":0.0034695324,"MEAN_MOTION_DOT":0.00055285,"MEAN_MOTION_DDOT":0},{"OBJECT_NAME":"LEMUR-2-TILLINFINITY","OBJECT_ID":"2025-061F","EPOCH":"2026-03-09T21:40:30.357696","MEAN_MOTION":15.139452,"ECCENTRICITY":0.00168906,"INCLINATION":97.5532,"RA_OF_ASC_NODE":45.5587,"ARG_OF_PERICENTER":226.702,"MEAN_ANOMALY":133.2804,"EPHEMERIS_TYPE":0,"CLASSIFICATION_TYPE":"U","NORAD_CAT_ID":63356,"ELEMENT_SET_NO":999,"REV_AT_EPOCH":5261,"BSTAR":0.00030453504,"MEAN_MOTION_DOT":5.472e-5,"MEAN_MOTION_DDOT":0}]
